SL-3 R/B                
1 13403U 82079B   25310.74985068  .00007644  00000+0  32105-3 0  9999
2 13403  81.1469 338.0722 0024934 218.8499 141.0942 15.23021190358977
SL-14 R/B               
1 13553U 82092B   25310.79517603  .00000979  00000+0  10763-3 0  9991
2 13553  82.5671 256.3255 0020257 353.7830  26.0266 14.86491579310674
SL-3 R/B                
1 13819U 83010B   25310.51638733  .00017155  00000+0  39730-3 0  9994
2 13819  81.1021 152.7901 0018343 113.7313 246.5856 15.42134524338933
SL-3 R/B                
1 14208U 83075B   25310.75252385  .00015238  00000+0  44649-3 0  9994
2 14208  97.6098 306.0563 0021731 312.8072  47.1343 15.35071861311279
COSMOS 1536             
1 14699U 84013A   25310.78336595  .00012979  00000+0  56722-3 0  9994
2 14699  82.5477 229.8006 0015383   3.0577 357.0750 15.21870713253915
SL-14 R/B               
1 14820U 84027B   25310.59419685  .00000697  00000+0  77096-4 0  9998
2 14820  82.5435   0.4524 0018621  25.8375 334.3767 14.85818366229351
SL-8 R/B                
1 15483U 85006B   25310.49890272  .00000324  00000+0  11623-3 0  9996
2 15483  74.0429 127.8100 0017499  72.0882 351.5245 14.37687157136324
SL-12 R/B(2)            
1 15772U 85042D   25310.53420237  .00000231  00000+0  12551-3 0  9990
2 15772  71.1092 347.9102 0037026 314.6365 195.1779 14.21934299 96880
SL-14 R/B               
1 15945U 85069B   25310.48151972  .00000711  00000+0  77944-4 0  9993
2 15945  82.5249 140.7916 0017508 238.3141 121.6369 14.86258987154531
SL-16 R/B               
1 16182U 85097B   25310.71406396 -.00000163  00000+0 -57548-4 0  9998
2 16182  71.0047  39.4454 0005086  80.0749  73.5096 14.16576542 69810
SL-14 R/B               
1 16496U 86006B   25310.62297073  .00000946  00000+0  98574-4 0  9998
2 16496  82.5297  15.5304 0075827 321.5704  38.0125 14.86596304130920
